NORAD_CAT_ID,OBJECT_NAME,OBJECT_TYPE,EPOCH,MEAN_MOTION,ECCENTRICITY,INCLINATION,RA_OF_ASC_NODE,ARG_OF_PERICENTER,MEAN_ANOMALY,BSTAR,MEAN_MOTION_DOT,MEAN_MOTION_DDOT,TLE_LINE0,TLE_LINE1,TLE_LINE2,SEMIMAJOR_AXIS,PERIOD,APOGEE,PERIGEE,DECAYED
52549.0,STARLINK-3935,PAYLOAD,2023-06-30 19:21:46,15.08838799,0.0001092,53.2159,221.4525,66.171,293.9397,-7.1063e-06,-4.01e-06,0.0,0 STARLINK-3935,1 52549U 22051S   23181.80678368 -.00000401  00000-0 -71063-5 0  9995,2 52549  53.2159 221.4525 0001092  66.1710 293.9397 15.08838799 63139,6917.884,95.438,540.504,538.994,0.0
52549.0,STARLINK-3935,PAYLOAD,2023-07-01 09:40:14,15.08832028,0.0001078,53.2164,218.7765,74.357,285.7541,-1.1298e-06,-3.06e-06,0.0,0 STARLINK-3935,1 52549U 22051S   23182.40295004 -.00000306  00000-0 -11298-5 0  9992,2 52549  53.2164 218.7765 0001078  74.3570 285.7541 15.08832028 63228,6917.905,95.438,540.516,539.024,0.0
52549.0,STARLINK-3935,PAYLOAD,2023-07-02 09:31:01,15.08838507,0.0001094,53.2161,214.3161,69.9865,290.1244,-3.2267e-06,-3.39e-06,0.0,0 STARLINK-3935,1 52549U 22051S   23183.39654860 -.00000339  00000-0 -32267-5 0  9995,2 52549  53.2161 214.3161 0001094  69.9865 290.1244 15.08838507 63376,6917.885,95.438,540.507,538.993,0.0
52549.0,STARLINK-3935,PAYLOAD,2023-07-03 10:57:11,15.08837681,0.0001023,53.216,209.5582,77.3554,282.7553,0.00010553,1.392e-05,0.0,0 STARLINK-3935,1 52549U 22051S   23184.45638825  .00001392  00000-0  10553-3 0  9996,2 52549  53.2160 209.5582 0001023  77.3554 282.7553 15.08837681 63538,6917.887,95.438,540.46,539.045,0.0
52549.0,STARLINK-3935,PAYLOAD,2023-07-05 01:06:27,15.08840862,0.0001064,53.2159,202.4215,77.3634,282.7477,4.6456e-05,4.52e-06,0.0,0 STARLINK-3935,1 52549U 22051S   23186.04614752  .00000452  00000-0  46456-4 0  9994,2 52549  53.2159 202.4215 0001064  77.3634 282.7477 15.08840862 63771,6917.878,95.438,540.479,539.007,0.0
52549.0,STARLINK-3935,PAYLOAD,2023-07-06 07:18:46,15.08844513,0.0001062,53.2159,196.7715,76.8539,283.2572,4.55e-05,4.36e-06,0.0,0 STARLINK-3935,1 52549U 22051S   23187.30470302  .00000436  00000-0  45500-4 0  9996,2 52549  53.2159 196.7715 0001062  76.8539 283.2572 15.08844513 63967,6917.867,95.437,540.466,538.997,0.0
52549.0,STARLINK-3935,PAYLOAD,2023-07-07 02:23:24,15.08836428,0.0001078,53.216,193.2033,76.011,284.1002,9.4189e-06,-1.38e-06,0.0,0 STARLINK-3935,1 52549U 22051S   23188.09958875 -.00000138  00000-0  94189-5 0  9997,2 52549  53.2160 193.2033 0001078  76.0110 284.1002 15.08836428 64086,6917.891,95.438,540.502,539.011,0.0
52549.0,STARLINK-3935,PAYLOAD,2023-07-08 07:00:20,15.0884036,0.000111,53.216,187.8508,75.4927,284.6188,2.5341e-05,1.16e-06,0.0,0 STARLINK-3935,1 52549U 22051S   23189.29190759  .00000116  00000-0  25341-4 0  9997,2 52549  53.2160 187.8508 0001110  75.4927 284.6188 15.08840360 64268,6917.879,95.438,540.512,538.976,0.0
52549.0,STARLINK-3935,PAYLOAD,2023-07-09 03:40:22,15.08831714,0.0001095,53.2156,183.985,76.763,283.3484,2.3682e-05,8.9e-07,0.0,0 STARLINK-3935,1 52549U 22051S   23190.15303557  .00000089  00000-0  23682-4 0  9991,2 52549  53.2156 183.9850 0001095  76.7630 283.3484 15.08831714 64399,6917.906,95.438,540.528,539.013,0.0
52549.0,STARLINK-3935,PAYLOAD,2023-07-10 11:28:04,15.08841742,0.0001135,53.2159,178.0376,77.147,282.9649,6.5031e-05,7.47e-06,0.0,0 STARLINK-3935,1 52549U 22051S   23191.47783138  .00000747  00000-0  65031-4 0  9999,2 52549  53.2159 178.0376 0001135  77.1470 282.9649 15.08841742 64594,6917.875,95.437,540.525,538.955,0.0
52549.0,STARLINK-3935,PAYLOAD,2023-07-12 07:58:52,15.08843128,0.0001225,53.2165,169.7099,83.5802,276.533,3.1553e-05,2.14e-06,0.0,0 STARLINK-3935,1 52549U 22051S   23193.33255288  .00000214  00000-0  31553-4 0  9997,2 52549  53.2165 169.7099 0001225  83.5802 276.5330 15.08843128 64877,6917.871,95.437,540.583,538.888,0.0
52549.0,STARLINK-3935,PAYLOAD,2023-07-13 07:49:39,15.08841081,0.0001312,53.2165,165.2498,85.6379,274.4763,2.557e-05,1.19e-06,0.0,0 STARLINK-3935,1 52549U 22051S   23194.32615502  .00000119  00000-0  25570-4 0  9992,2 52549  53.2165 165.2498 0001312  85.6379 274.4763 15.08841081 65021,6917.877,95.437,540.65,538.834,0.0
52549.0,STARLINK-3935,PAYLOAD,2023-07-15 01:09:41,15.08839751,0.000133,53.2165,157.5174,89.622,270.4925,5.8791e-05,6.48e-06,0.0,0 STARLINK-3935,1 52549U 22051S   23196.04839550  .00000648  00000-0  58791-4 0  9992,2 52549  53.2165 157.5174 0001330  89.6220 270.4925 15.08839751 65280,6917.881,95.438,540.666,538.826,0.0
52549.0,STARLINK-3935,PAYLOAD,2023-07-16 04:11:15,15.088371,0.0001189,53.2164,152.4649,86.7479,273.3649,-2.7975e-05,-7.33e-06,0.0,0 STARLINK-3935,1 52549U 22051S   23197.17448176 -.00000733  00000-0 -27975-4 0  9994,2 52549  53.2164 152.4649 0001189  86.7479 273.3649 15.08837100 65456,6917.889,95.438,540.577,538.932,0.0
52549.0,STARLINK-3935,PAYLOAD,2023-07-17 07:12:48,15.08844138,0.0001215,53.2163,147.4099,92.6467,267.4664,1.6901e-05,-1.9e-07,0.0,0 STARLINK-3935,1 52549U 22051S   23198.30055836 -.00000019  00000-0  16901-4 0  9990,2 52549  53.2163 147.4099 0001215  92.6467 267.4664 15.08844138 65620,6917.868,95.437,540.573,538.892,0.0
52549.0,STARLINK-3935,PAYLOAD,2023-07-19 02:08:13,15.08839226,0.0001231,53.2163,139.3797,95.9526,264.1606,3.3854e-06,-2.34e-06,0.0,0 STARLINK-3935,1 52549U 22051S   23200.08904510 -.00000234  00000-0  33854-5 0  9997,2 52549  53.2163 139.3797 0001231  95.9526 264.1606 15.08839226 65896,6917.883,95.438,540.599,538.896,0.0
52549.0,STARLINK-3935,PAYLOAD,2023-07-19 05:18:59,15.08842573,0.0001246,53.2167,138.7849,97.4342,262.6791,3.0865e-05,2.03e-06,0.0,0 STARLINK-3935,1 52549U 22051S   23200.22152224  .00000203  00000-0  30865-4 0  9993,2 52549  53.2167 138.7849 0001246  97.4342 262.6791 15.08842573 65910,6917.873,95.437,540.599,538.876,0.0
52549.0,STARLINK-3935,PAYLOAD,2023-07-21 01:49:47,15.08838928,0.0001332,53.2171,130.4593,84.8924,275.2221,3.913e-05,3.35e-06,0.0,0 STARLINK-3935,1 52549U 22051S   23202.07624624  .00000335  00000-0  39130-4 0  9996,2 52549  53.2171 130.4593 0001332  84.8924 275.2221 15.08838928 66190,6917.884,95.438,540.67,538.827,0.0
52549.0,STARLINK-3935,PAYLOAD,2023-07-24 04:32:55,15.08834601,0.0001326,53.2175,116.4835,100.689,259.4251,-6.5722e-05,-1.334e-05,0.0,0 STARLINK-3935,1 52549U 22051S   23205.18953531 -.00001334  00000-0 -65722-4 0  9991,2 52549  53.2175 116.4835 0001326 100.6890 259.4251 15.08834601 66594,6917.897,95.438,540.679,538.845,0.0
52549.0,STARLINK-3935,PAYLOAD,2023-07-25 02:48:19,15.08837648,0.0001185,53.2167,112.32,112.8078,247.3039,-4.7386e-05,-1.042e-05,0.0,0 STARLINK-3935,1 52549U 22051S   23206.11689539 -.00001042  00000-0 -47386-4 0  9991,2 52549  53.2167 112.3200 0001185 112.8078 247.3039 15.08837648 66732,6917.888,95.438,540.572,538.933,0.0
52549.0,STARLINK-3935,PAYLOAD,2023-07-26 02:39:06,15.08836278,0.0001926,53.2195,107.8609,85.5769,274.5443,0.00012513,1.704e-05,0.0,0 STARLINK-3935,1 52549U 22051S   23207.11049764  .00001704  00000-0  12513-3 0  9998,2 52549  53.2195 107.8609 0001926  85.5769 274.5443 15.08836278 66886,6917.892,95.438,541.089,538.424,0.0
52549.0,STARLINK-3935,PAYLOAD,2023-07-26 23:19:07,15.08839368,0.0001213,53.2168,103.9927,94.6759,265.4372,0.00013936,1.931e-05,0.0,0 STARLINK-3935,1 52549U 22051S   23207.97161056  .00001931  00000-0  13936-3 0  9993,2 52549  53.2168 103.9927 0001213  94.6759 265.4372 15.08839368 67081,6917.882,95.438,540.586,538.908,0.0
52549.0,STARLINK-3935,PAYLOAD,2023-07-27 12:02:13,15.08818022,0.0001383,53.2168,101.6156,85.4543,274.6607,0.00027637,4.111e-05,0.0,0 STARLINK-3935,1 52549U 22051S   23208.50154215  .00004111  00000-0  27637-3 0  9998,2 52549  53.2168 101.6156 0001383  85.4543 274.6607 15.08818022 67095,6917.948,95.439,540.769,538.856,0.0
52549.0,STARLINK-3935,PAYLOAD,2023-07-27 21:34:32,15.08832392,0.0001097,53.2173,99.829,115.4562,244.6544,-0.00013987,-2.513e-05,0.0,0 STARLINK-3935,1 52549U 22051S   23208.89898468 -.00002513  00000-0 -13987-3 0  9994,2 52549  53.2173  99.8290 0001097 115.4562 244.6544 15.08832392 67155,6917.904,95.438,540.528,539.01,0.0
52549.0,STARLINK-3935,PAYLOAD,2023-07-28 02:20:41,15.08835726,0.0001248,53.2166,98.9385,81.1691,278.9443,-9.6472e-05,-1.823e-05,0.0,0 STARLINK-3935,1 52549U 22051S   23209.09770366 -.00001823  00000-0 -96472-4 0  9997,2 52549  53.2166  98.9385 0001248  81.1691 278.9443 15.08835726 67255,6917.893,95.438,540.622,538.895,0.0
52549.0,STARLINK-3935,PAYLOAD,2023-07-28 16:39:09,15.08894041,0.0001051,53.2169,96.2638,74.3672,285.7436,-0.00058306,-9.569e-05,0.0,0 STARLINK-3935,1 52549U 22051S   23209.69385641 -.00009569  00000-0 -58306-3 0  9999,2 52549  53.2169  96.2638 0001051  74.3672 285.7436 15.08894041 67348,6917.715,95.434,540.307,538.853,0.0
52549.0,STARLINK-3935,PAYLOAD,2023-07-29 19:40:42,15.08832584,0.0001375,53.2163,91.2075,73.91,286.2044,0.00014599,2.036e-05,0.0,0 STARLINK-3935,1 52549U 22051S   23210.81993597  .00002036  00000-0  14599-3 0  9996,2 52549  53.2163  91.2075 0001375  73.9100 286.2044 15.08832584 67516,6917.903,95.438,540.719,538.817,0.0
52549.0,STARLINK-3935,PAYLOAD,2023-07-30 02:02:14,15.08839615,0.0001367,53.2172,90.0168,75.4351,284.6793,0.00013501,1.861e-05,0.0,0 STARLINK-3935,1 52549U 22051S   23211.08489243  .00001861  00000-0  13501-3 0  9991,2 52549  53.2172  90.0168 0001367  75.4351 284.6793 15.08839615 67551,6917.882,95.438,540.692,538.801,0.0
52549.0,STARLINK-3935,PAYLOAD,2023-07-31 08:14:34,15.08843929,0.0001322,53.217,84.3683,83.6258,276.4885,-4.6138e-05,-1.022e-05,0.0,0 STARLINK-3935,1 52549U 22051S   23212.34345417 -.00001022  00000-0 -46138-4 0  9999,2 52549  53.2170  84.3683 0001322  83.6258 276.4885 15.08843929 67740,6917.868,95.437,540.648,538.819,0.0
52549.0,STARLINK-3935,PAYLOAD,2023-08-01 00:08:26,15.08838503,0.0001204,53.2173,81.3953,80.9521,279.1607,-7.3079e-06,-4.04e-06,0.0,0 STARLINK-3935,1 52549U 22051S   23213.00585869 -.00000404  00000-0 -73079-5 0  9998,2 52549  53.2173  81.3953 0001204  80.9521 279.1607 15.08838503 67847,6917.885,95.438,540.583,538.917,0.0
